OBJECT_NAME,OBJECT_ID,EPOCH,MEAN_MOTION,ECCENTRICITY,INCLINATION,RA_OF_ASC_NODE,ARG_OF_PERICENTER,MEAN_ANOMALY,EPHEMERIS_TYPE,CLASSIFICATION_TYPE,NORAD_CAT_ID,ELEMENT_SET_NO,REV_AT_EPOCH,BSTAR,MEAN_MOTION_DOT,MEAN_MOTION_DDOT
IONOSFERA-M 2,2024-199B,2026-07-10T07:04:39.585504,14.22761816,.0000355,98.7142,64.1304,104.2947,255.8271,0,U,61736,999,13411,.29635698E-4,.22E-6,0
PRSC-EO1,2025-012A,2026-07-10T08:00:48.322368,15.17744814,.00065376,97.4221,263.3404,164.1190,196.0250,0,U,62725,999,8170,.25127238E-3,.5007E-4,0
BIOMASS,2025-090A,2026-07-09T22:41:26.733120,14.67535603,.00013835,98.0728,17.9248,92.7222,267.4141,0,U,63772,999,6402,.12425381E-3,.657E-5,0
GOSAT-GW (IBUKI GW),2025-141A,2026-07-10T07:17:16.662912,14.67554050,.00014499,98.0566,128.2451,84.0206,276.1164,0,U,64694,999,5523,-.1062527E-5,-.54E-6,0
IONOSFERA-M 3,2025-155A,2026-07-10T07:59:56.886720,14.21490325,.00021403,98.6037,152.6572,119.9563,240.1827,0,U,64876,999,4969,.30040445E-4,.23E-6,0
IONOSFERA-M 4,2025-155B,2026-07-10T07:08:42.216576,14.21492761,.00017489,98.6036,152.5396,104.6031,255.5340,0,U,64877,999,4968,.31238287E-4,.25E-6,0
MICROCARB,2025-156A,2026-07-09T16:59:34.891872,14.72881364,.00171873,98.0075,267.4872,188.1611,171.9320,0,U,64899,999,5128,.60786372E-4,.34E-5,0
CO3D 3,2025-156B,2026-07-10T06:59:39.709248,15.20212683,.00018478,97.4336,269.6522,99.7360,260.4084,0,U,64900,999,5304,.13596027E-3,.2878E-4,0
CO3D 4,2025-156C,2026-07-10T05:25:05.908512,15.20205175,.00012271,97.4337,269.5877,162.5388,197.5889,0,U,64901,999,5303,.42253728E-4,.847E-5,0
CO3D 2,2025-156D,2026-07-10T06:11:51.815040,15.20196763,.00013145,97.4334,269.5183,86.8042,273.3344,0,U,64902,999,5303,.12480626E-3,.2635E-4,0
CO3D 1,2025-156E,2026-07-10T06:12:05.081760,15.20200321,.00012849,97.4335,269.5185,98.8748,261.2633,0,U,64903,999,5303,.12966877E-3,.274E-4,0
PRSC-S1,2025-164A,2026-07-10T06:25:36.797664,15.06611128,.00059182,41.1290,157.8040,164.9552,195.1439,0,U,65055,999,5191,.16462282E-3,.2305E-4,0
SENTINEL-6B,2025-264A,2026-07-10T02:50:15.264672,12.80930089,.00078778,66.0414,87.5519,268.8168,91.1945,0,U,66514,999,3010,-.35218925E-4,-.69E-6,0
CAS500-3,2025-274F,2026-07-10T06:36:10.338624,14.88376906,.00065732,97.7440,118.8011,51.3120,308.8684,0,U,66655,999,3358,.9098435E-4,.789E-5,0
CSG-3,2026-001A,2026-07-09T17:56:28.955040,14.82149656,.00014993,97.8893,14.0231,92.4764,267.6621,0,U,67304,999,2780,.3215298E-4,.204E-5,0
PRSC-E03,2026-092A,2026-07-10T07:37:04.314720,15.06794550,.00044333,38.0024,313.2755,220.4749,139.5684,0,U,68835,999,1144,.12194328E-3,.1741E-4,0
CAS500-2,2026-100AK,2026-07-10T04:22:24.425760,15.20866161,.00081008,97.3877,88.6034,313.0008,47.0548,0,U,69013,999,1030,.20272055E-3,.4412E-4,0
