IONOSFERA-M 2           
1 61736U 24199B   26191.29490261  .00000022  00000+0  29636-4 0  9993
2 61736  98.7142  64.1304 0000355 104.2947 255.8271 14.22761816134112
PRSC-EO1                
1 62725U 25012A   26191.33389262  .00005007  00000+0  25127-3 0  9998
2 62725  97.4221 263.3404 0006537 164.1190 196.0250 15.17744814 81705
BIOMASS                 
1 63772U 25090A   26190.94544830  .00000657  00000+0  12425-3 0  9990
2 63772  98.0728  17.9248 0001383  92.7222 267.4141 14.67535603 64028
GOSAT-GW (IBUKI GW)     
1 64694U 25141A   26191.30366508 -.00000054  00000+0 -10625-5 0  9991
2 64694  98.0566 128.2451 0001449  84.0206 276.1164 14.67554050 55235
IONOSFERA-M 3           
1 64876U 25155A   26191.33329730  .00000023  00000+0  30040-4 0  9993
2 64876  98.6037 152.6572 0002140 119.9563 240.1827 14.21490325 49698
IONOSFERA-M 4           
1 64877U 25155B   26191.29771084  .00000025  00000+0  31238-4 0  9994
2 64877  98.6036 152.5396 0001748 104.6031 255.5340 14.21492761 49680
MICROCARB               
1 64899U 25156A   26190.70804273  .00000340  00000+0  60786-4 0  9991
2 64899  98.0075 267.4872 0017187 188.1611 171.9320 14.72881364 51286
CO3D 3                  
1 64900U 25156B   26191.29143182  .00002878  00000+0  13596-3 0  9998
2 64900  97.4336 269.6522 0001847  99.7360 260.4084 15.20212683 53045
CO3D 4                  
1 64901U 25156C   26191.22576283  .00000847  00000+0  42254-4 0  9992
2 64901  97.4337 269.5877 0001227 162.5388 197.5889 15.20205175 53030
CO3D 2                  
1 64902U 25156D   26191.25823860  .00002635  00000+0  12481-3 0  9997
2 64902  97.4334 269.5183 0001314  86.8042 273.3344 15.20196763 53031
CO3D 1                  
1 64903U 25156E   26191.25839215  .00002740  00000+0  12967-3 0  9995
2 64903  97.4335 269.5185 0001284  98.8748 261.2633 15.20200321 53030
PRSC-S1                 
1 65055U 25164A   26191.26778701  .00002305  00000+0  16462-3 0  9997
2 65055  41.1290 157.8040 0005918 164.9552 195.1439 15.06611128 51919
SENTINEL-6B             
1 66514U 25264A   26191.11823223 -.00000069  00000+0 -35219-4 0  9992
2 66514  66.0414  87.5519 0007877 268.8168  91.1945 12.80930089 30101
CAS500-3                
1 66655U 25274F   26191.27511966  .00000789  00000+0  90984-4 0  9991
2 66655  97.7440 118.8011 0006573  51.3120 308.8684 14.88376906 33582
CSG-3                   
1 67304U 26001A   26190.74755735  .00000204  00000+0  32153-4 0  9993
2 67304  97.8893  14.0231 0001499  92.4764 267.6621 14.82149656 27805
PRSC-E03                
1 68835U 26092A   26191.31741105  .00001741  00000+0  12194-3 0  9992
2 68835  38.0024 313.2755 0004433 220.4749 139.5684 15.06794550 11445
CAS500-2                
1 69013U 26100AK  26191.18222715  .00004412  00000+0  20272-3 0  9991
2 69013  97.3877  88.6034 0008100 313.0008  47.0548 15.20866161 10303
